SL-8 DEB                
1 19102U 82051G   20325.61760465  .00000327  00000-0  84412-4 0  9991
2 19102  74.0471 269.6760 0010481   2.8884 170.1494 14.53940396718699
DELTA 1 DEB             
1 19105U 75004HN  20325.69369825  .00000088  00000-0  32535-4 0  9990
2 19105  98.8246 115.5178 0063406 240.9778 130.3985 14.54383821887257
ATLAS CENTAUR 2 DEB     
1 19106U 63047T   20325.44211729  .00002392  00000-0  28215-3 0  9996
2 19106  30.3545 359.5318 0145185  97.4811 264.2325 14.74885935734391
WESTFORD NEEDLES        
1 19109U 63014EJ  20325.83986138 -.00001967  00000-0 -52991+0 0  9992
2 19109  87.0866 274.5875 1002750 273.7214  74.9722  8.70051043902893
COSMOS 1691 DEB         
1 19111U 85094W   20325.59854706  .00000187  00000-0  90027-3 0  9992
2 19111  82.6076  75.9350 0013302  49.9915 322.4634 12.69136739515113
COSMOS 886 DEB          
1 19112U 76126BZ  20325.31592711  .00000289  00000-0  89075-4 0  9999
2 19112  65.8271 337.0845 0952410 289.4314  60.6277 13.14881773291842
OPS 4682 DEB            
1 19113U 65027AQ  20324.75811006 -.00000590  00000-0 -18798-2 0  9995
2 19113  90.2860 325.3325 0034233 100.1255  74.8496 13.03713171369513
COSMOS 1943             
1 19119U 88039A   20325.81630240 -.00000233  00000-0 -95071-4 0  9991
2 19119  71.0033 351.0683 0013557 305.0679 227.5729 14.15160213679307
SL-16 R/B               
1 19120U 88039B   20325.37640475 -.00000122  00000-0 -35421-4 0  9995
2 19120  71.0150 199.0522 0019800  65.6198 294.6991 14.19209212683772
NSS-513 (INTELSAT 513)  
1 19121U 88040A   20325.38938961 -.00000235  00000-0  00000-0 0  9994
2 19121  15.3685   4.4844 0013168  53.7737 113.6747  0.98575520 94484
ARIANE 2 R/B            
1 19122U 88040B   20325.18011805 -.00000023  00000-0  86129-3 0  9996
2 19122   7.7099  28.2812 7131522  47.6038 353.7655  2.33515834226199
SL-16 DEB               
1 19125U 88039C   20325.56298903 -.00000015  00000-0  24930-4 0  9999
2 19125  71.0336  46.3446 0179762 343.4873  16.0420 13.79012458635626
SL-16 DEB               
1 19126U 88039D   20325.57189319 -.00000000  00000-0  38020-4 0  9990
2 19126  71.0313 115.3938 0185170 354.2835  77.1088 13.77239488633654
SL-16 DEB               
1 19127U 88039E   20325.61089670 -.00000074  00000-0 -28416-4 0  9995
2 19127  70.9871 262.6434 0210686 228.6103 307.6240 13.72106505627575
SL-16 DEB               
1 19128U 88039F   20325.51533742 -.00000001  00000-0  40133-4 0  9998
2 19128  70.9836 245.5864 0207077 253.6551 282.2574 13.72263512627894
SL-14 DEB               
1 19133U 78100F   20325.60592796  .00002890  00000-0  17229-1 0  9990
2 19133  82.3544 194.6779 0109260 331.8503  87.4332 12.55553180880120
SL-14 DEB               
1 19134U 78100G   20325.57148545 -.00000127  00000-0 -64605-3 0  9991
2 19134  82.3087  28.7336 0172568 167.9243 310.9696 12.71252668890346
SL-14 DEB               
1 19136U 78100J   20325.76122704  .00000347  00000-0  84312-3 0  9992
2 19136  82.4156 136.5275 0429331 293.1698  74.0573 12.91450548945741
SL-14 DEB               
1 19137U 78100K   20325.76800950  .00001515  00000-0  88425-2 0  9995
2 19137  82.3199 141.5361 0043030 319.6888  51.5362 12.58335962878682
SL-14 DEB               
1 19138U 78100L   20325.44730300 -.00000068  00000-0 -63991-3 0  9998
2 19138  82.3114 196.6423 0162945 151.8209  23.3427 12.29623344457639
SL-14 DEB               
1 19139U 78100M   20324.86047066  .00000040  00000-0  57136-3 0  9996
2 19139  82.1388 108.6788 0150559 205.2667 275.4206 11.70321574389025
SCOUT G-1 DEB           
1 19140U 88033F   20325.73770501  .00000888  00000-0  10388-2 0  9995
2 19140  90.3302 309.5353 0249513  14.3265 159.8902 13.55468544596006
COSMOS 1823 DEB         
1 19141U 87020BD  20325.44465000  .00005951  00000-0  81017-2 0  9997
2 19141  73.9200 115.8647 0011547 236.7699 188.6971 13.59218672553592
SL-14 DEB               
1 19143U 78100P   20325.67664397  .00001163  00000-0  48783-2 0  9997
2 19143  81.7010 104.2055 0321047 303.4646  64.3722 12.68038683499929
SL-14 DEB               
1 19144U 78100Q   20325.85651331  .00000100  00000-0  12798-2 0  9999
2 19144  82.6152 276.8869 0044494 149.8735 238.5367 11.89377931411732
THORAD AGENA D DEB      
1 19150U 70025PS  20325.24024399  .00001691  00000-0  13800-2 0  9996
2 19150 100.3422 327.2935 0033200 153.5321 269.4200 13.91144861620019
COSMOS 1932 FUEL CORE   
1 19162U 88019D   20325.82602769 -.00000083  00000-0  51554-5 0  9994
2 19162  65.0434  95.7617 0025851 206.6474 317.4585 13.83883661642853
COSMOS 1946 [GLONASS]   
1 19163U 88043A   20322.52063196  .00000059  00000-0  00000+0 0  9997
2 19163  64.2497 143.4574 0003849 117.8171  63.0031  2.13102303252302
COSMOS 1947 [GLONASS]   
1 19164U 88043B   20324.52166321  .00000060  00000-0  00000+0 0  9996
2 19164  64.2454 143.3210 0021912 212.2359 123.4696  2.13103836247989
COSMOS 1948 [GLONASS]   
1 19165U 88043C   20323.05518845  .00000056  00000-0  00000+0 0  9991
2 19165  64.2330 143.1993 0002021 345.2706 210.4200  2.13103852252939
SL-12 R/B(2)            
1 19168U 88043F   20324.05638615  .00000057  00000-0  00000-0 0  9995
2 19168  64.2417 141.5105 0012379 214.2069 335.2443  2.13498135253295
SL-12 R/B(AUX MOTOR)    
1 19169U 88043G   20325.15247283  .00000050  00000-0  27061-3 0  9997
2 19169  65.4288 292.9328 5617618  60.6409 343.8073  4.26068295504037
SL-12 R/B(AUX MOTOR)    
1 19170U 88043H   20325.23111228  .00000000  00000-0  34120-3 0  9996
2 19170  65.2501 279.9778 5637927 129.9331 295.1475  4.25011042503577
SL-14 DEB               
1 19174U 78100R   20325.56420743  .00000171  00000-0  14760-2 0  9990
2 19174  81.9047 259.5318 0153727  27.7929 146.1424 12.21967787450176
SL-14 DEB               
1 19175U 78100S   20325.24283321  .00005822  00000-0  18306-1 0  9992
2 19175  82.4193 230.6093 0227902 110.4299  48.2683 12.95401224493910
SL-14 DEB               
1 19176U 78100T   20325.32092154  .00000069  00000-0  76225-3 0  9998
2 19176  82.0901  90.7738 0159853 153.1398 236.5729 11.95623406417442
SL-14 DEB               
1 19178U 78100U   20325.55794291  .00000063  00000-0  55776-3 0  9998
2 19178  82.1219 243.9660 0033978 324.5396 209.6526 12.16000633438448
SCOUT G-1 DEB           
1 19181U 88033G   20324.92402745  .00000105  00000-0  20249-3 0  9992
2 19181  89.8676 307.1590 0249422 314.3622 108.6232 13.21317636568728
THORAD DELTA 1 DEB      
1 19183U 74089FD  20325.63689906  .00001304  00000-0  29443-2 0  9991
2 19183 103.5459 253.8639 0194722  59.8118  60.5029 13.23042688511291
OPS 4682 DEB            
1 19185U 65027AR  20325.46882424  .00000452  00000-0  15489-2 0  9994
2 19185  90.2884 315.7029 0037177  27.3403 127.3792 12.96546783686538
COSMOS 1950             
1 19195U 88046A   20325.46002253 -.00000021  00000-0 -25814-4 0  9994
2 19195  73.5973 313.1635 0024440 228.5496 300.6623 12.40891560471191
SL-14 R/B               
1 19196U 88046B   20325.39308104 -.00000025  00000-0 -53121-4 0  9997
2 19196  73.5975 297.0136 0021158 215.5868 258.1892 12.41397208471806
COSMOS 1953             
1 19210U 88050A   20325.78520999  .00000265  00000-0  16114-4 0  9995
2 19210  82.5177 258.0593 0011967 307.8948  52.1197 15.06081454766323
SL-14 R/B               
1 19211U 88050B   20325.47229328  .00000089  00000-0  80126-5 0  9993
2 19211  82.5245 111.0822 0020720 313.4267 103.6078 14.83085119731314
METEOSAT-P2             
1 19215U 88051A   20325.59094670 -.00000075  00000-0  00000+0 0  9994
2 19215  15.7846 357.0544 0005635 345.7691   9.3890  0.96946394103679
PAS 1                   
1 19217U 88051C   20325.25660737  .00000065  00000-0  00000-0 0  9991
2 19217  13.6882  19.7423 0004323 326.3861  33.2863  0.99389915 26654
ARIANE 44LP DEB         
1 19219U 88051E   20325.20377742 -.00000105  00000-0  11515-3 0  9991
2 19219   9.9069 191.8501 6794455 330.0322   4.4521  2.87380643298247
COSMOS 886 DEB          
1 19221U 76126CB  20325.83073159 -.00000013  00000-0  51060-4 0  9996
2 19221  65.8336 357.0597 0873324 282.4554  68.0187 12.72019934391080
NOVA 2                  
1 19223U 88052A   20325.61505241  .00000053  00000-0  10554-3 0  9992
2 19223  89.9701  82.5454 0031933  67.9275 303.7082 13.22710856565156
SL-14 DEB               
1 19226U 78100V   20325.28470448  .00000030  00000-0  26145-3 0  9999
2 19226  82.5315  72.8985 0032530 356.7091  65.5843 12.00044637422252
SL-14 DEB               
1 19227U 78100W   20325.47038248  .00018166  00000-0  78377-2 0  9991
2 19227  81.9006 115.4451 0315858 334.9883  23.6254 14.00966592157384
SL-14 DEB               
1 19228U 78100X   20325.41603751  .00003553  00000-0  12877-1 0  9999
2 19228  82.4745 304.8230 0104455 293.2061 220.9803 12.91954283480208
SL-14 DEB               
1 19229U 78100Y   20325.47476628 -.00001962  00000-0 -38916-2 0  9994
2 19229  82.3219 106.1094 0275365 201.1996 226.2492 13.22213093912664
SL-14 DEB               
1 19230U 78100Z   20325.58317191  .00000084  00000-0  95192-3 0  9999
2 19230  82.5352  78.1776 0013763   5.2990   6.6764 11.98634940422577
SL-14 DEB               
1 19232U 78100AB  20325.24843668  .00000015  00000-0  12122-3 0  9993
2 19232  82.3295 305.7690 0189644 192.1650 181.1571 11.67461904385698
SL-14 DEB               
1 19233U 78100AC  20325.66854537  .00000096  00000-0  99090-3 0  9995
2 19233  82.5556  20.5172 0045899  75.6115  86.2354 12.06060394429877
SL-14 DEB               
1 19234U 78100AD  20325.51261266  .00000270  00000-0  40561-2 0  9993
2 19234  82.4306 236.1065 0129337   6.0897 167.6689 11.79783172398922
SL-8 DEB                
1 19235U 70102G   20325.38071646  .00000087  00000-0  90346-4 0  9998
2 19235  74.0194 305.5441 0004889 339.7378 171.6212 13.89332754803554
THORAD AGENA D DEB      
1 19238U 70025PT  20325.51734756  .00000318  00000-0  39097-3 0  9990
2 19238  99.7850  63.7795 0043202 302.8902  68.5550 13.73294355660233
